[{"OBJECT_NAME":"STARLINK-35864","OBJECT_ID":"2025-298G","EPOCH":"2026-03-09T23:27:56.636640","MEAN_MOTION":14.98572932,"ECCENTRICITY":0.00033352,"INCLINATION":70.0031,"RA_OF_ASC_NODE":13.6076,"ARG_OF_PERICENTER":298.5733,"MEAN_ANOMALY":61.509,"EPHEMERIS_TYPE":0,"CLASSIFICATION_TYPE":"U","NORAD_CAT_ID":67081,"ELEMENT_SET_NO":999,"REV_AT_EPOCH":1326,"BSTAR":-0.01738886,"MEAN_MOTION_DOT":-0.00202964,"MEAN_MOTION_DDOT":0},{"OBJECT_NAME":"UNISAT-5","OBJECT_ID":"2013-066F","EPOCH":"2026-03-09T22:02:55.134816","MEAN_MOTION":15.04155626,"ECCENTRICITY":0.00317175,"INCLINATION":97.6976,"RA_OF_ASC_NODE":39.5171,"ARG_OF_PERICENTER":68.1555,"MEAN_ANOMALY":292.3039,"EPHEMERIS_TYPE":0,"CLASSIFICATION_TYPE":"U","NORAD_CAT_ID":39421,"ELEMENT_SET_NO":999,"REV_AT_EPOCH":66774,"BSTAR":0.0004680489,"MEAN_MOTION_DOT":6.504e-5,"MEAN_MOTION_DDOT":0}]
